start=new Date('2022-09-06T00:00:00.000Z').valueOf();
sats=[{"DECAY_DATE":null,"RA_OF_ASC_NODE":"118.7503","TLE_LINE1":"1 52534U 22051B   22248.91667824 -.00026489  00000-0 -16527-2 0  9994","LAUNCH_DATE":"2022-05-13","TIME_SYSTEM":"UTC","GP_ID":"211836191","CENTER_NAME":"EARTH","OBJECT_NAME":"STARLINK-3952","EPHEMERIS_TYPE":"0","REF_FRAME":"TEME","OBJECT_ID":"2022-051B","SEMIMAJOR_AXIS":"6917.906","PERIOD":"95.438","MEAN_ANOMALY":"52.5376","NORAD_CAT_ID":"52534","REV_AT_EPOCH":"130","BSTAR":"-0.00165270000000","TLE_LINE2":"2 52534  53.2172 118.7503 0002047  61.5150  52.5376 15.08831579  1306","INCLINATION":"53.2172","OBJECT_TYPE":"PAYLOAD","MEAN_ELEMENT_THEORY":"SGP4","RCS_SIZE":"LARGE","CLASSIFICATION_TYPE":"U","COUNTRY_CODE":"US","MEAN_MOTION_DDOT":"0.0000000000000","MEAN_MOTION_DOT":"-0.00026489","APOAPSIS":"541.187","ECCENTRICITY":"0.00020470","MEAN_MOTION":"15.08831579","PERIAPSIS":"538.355","FILE":"3559723","EPOCH":"2022-09-05T22:00:00.999936","ELEMENT_SET_NO":"999","SITE":"AFWTR","ARG_OF_PERICENTER":"61.5150"},{"SEMIMAJOR_AXIS":"6917.844","EPHEMERIS_TYPE":"0","OBJECT_ID":"2022-051C","REF_FRAME":"TEME","OBJECT_NAME":"STARLINK-3958","GP_ID":"211836752","CENTER_NAME":"EARTH","LAUNCH_DATE":"2022-05-13","TIME_SYSTEM":"UTC","RA_OF_ASC_NODE":"118.7440","TLE_LINE1":"1 52535U 22051C   22248.91667824 -.00068992  00000-0 -43570-2 0  9998","DECAY_DATE":null,"REV_AT_EPOCH":"130","NORAD_CAT_ID":"52535","MEAN_ANOMALY":"69.5063","PERIOD":"95.437","APOAPSIS":"541.275","ECCENTRICITY":"0.00022650","MEAN_MOTION":"15.08852049","MEAN_MOTION_DDOT":"0.0000000000000","MEAN_MOTION_DOT":"-0.00068992","COUNTRY_CODE":"US","MEAN_ELEMENT_THEORY":"SGP4","CLASSIFICATION_TYPE":"U","RCS_SIZE":"LARGE","INCLINATION":"53.2159","OBJECT_TYPE":"PAYLOAD","TLE_LINE2":"2 52535  53.2159 118.7440 0002265  64.5470  69.5063 15.08852049  1308","BSTAR":"-0.00435700000000","ARG_OF_PERICENTER":"64.5470","SITE":"AFWTR","ELEMENT_SET_NO":"999","EPOCH":"2022-09-05T22:00:00.999936","FILE":"3559723","PERIAPSIS":"538.142"},{"ARG_OF_PERICENTER":"65.0726","SITE":"AFWTR","ELEMENT_SET_NO":"999","EPOCH":"2022-09-05T22:00:00.999936","PERIAPSIS":"538.353","FILE":"3559723","ECCENTRICITY":"0.00019500","APOAPSIS":"541.051","MEAN_MOTION":"15.08854088","MEAN_MOTION_DOT":"-0.00047377","MEAN_MOTION_DDOT":"0.0000000000000","COUNTRY_CODE":"US","CLASSIFICATION_TYPE":"U","RCS_SIZE":"LARGE","MEAN_ELEMENT_THEORY":"SGP4","OBJECT_TYPE":"PAYLOAD","INCLINATION":"53.2165","TLE_LINE2":"2 52536  53.2165 118.7447 0001950  65.0726  88.9296 15.08854088  1301","BSTAR":"-0.00297710000000","REV_AT_EPOCH":"130","NORAD_CAT_ID":"52536","MEAN_ANOMALY":"88.9296","PERIOD":"95.437","SEMIMAJOR_AXIS":"6917.837","REF_FRAME":"TEME","OBJECT_ID":"2022-051D","EPHEMERIS_TYPE":"0","OBJECT_NAME":"STARLINK-3964","CENTER_NAME":"EARTH","GP_ID":"211837047","LAUNCH_DATE":"2022-05-13","TIME_SYSTEM":"UTC","TLE_LINE1":"1 52536U 22051D   22248.91667824 -.00047377  00000-0 -29771-2 0  9990","RA_OF_ASC_NODE":"118.7447","DECAY_DATE":null},{"SITE":"AFWTR","PERIAPSIS":"538.277","FILE":"3559723","ELEMENT_SET_NO":"999","EPOCH":"2022-09-05T22:00:00.999936","ARG_OF_PERICENTER":"68.8074","OBJECT_TYPE":"PAYLOAD","INCLINATION":"53.2174","BSTAR":"-0.00223760000000","TLE_LINE2":"2 52537  53.2174 118.7482 0002144  68.8074 105.2463 15.08835185  1300","MEAN_MOTION_DOT":"-0.00035720","MEAN_MOTION_DDOT":"0.0000000000000","APOAPSIS":"541.243","ECCENTRICITY":"0.00021440","MEAN_MOTION":"15.08835185","RCS_SIZE":"LARGE","CLASSIFICATION_TYPE":"U","MEAN_ELEMENT_THEORY":"SGP4","COUNTRY_CODE":"US","NORAD_CAT_ID":"52537","PERIOD":"95.438","MEAN_ANOMALY":"105.2463","REV_AT_EPOCH":"130","TIME_SYSTEM":"UTC","LAUNCH_DATE":"2022-05-13","CENTER_NAME":"EARTH","GP_ID":"211836484","DECAY_DATE":null,"TLE_LINE1":"1 52537U 22051E   22248.91667824 -.00035720  00000-0 -22376-2 0  9994","RA_OF_ASC_NODE":"118.7482","OBJECT_ID":"2022-051E","REF_FRAME":"TEME","EPHEMERIS_TYPE":"0","SEMIMAJOR_AXIS":"6917.895","OBJECT_NAME":"STARLINK-3897"},{"INCLINATION":"53.2174","OBJECT_TYPE":"PAYLOAD","BSTAR":"-0.00136130000000","TLE_LINE2":"2 52538  53.2174 118.7424 0001808  63.4058 150.5885 15.08840543  1301","MEAN_MOTION_DDOT":"0.0000000000000","MEAN_MOTION_DOT":"-0.00021888","ECCENTRICITY":"0.00018080","APOAPSIS":"540.994","MEAN_MOTION":"15.08840543","MEAN_ELEMENT_THEORY":"SGP4","RCS_SIZE":"LARGE","CLASSIFICATION_TYPE":"U","COUNTRY_CODE":"US","SITE":"AFWTR","FILE":"3559723","PERIAPSIS":"538.493","ELEMENT_SET_NO":"999","EPOCH":"2022-09-05T22:00:00.999936","ARG_OF_PERICENTER":"63.4058","TIME_SYSTEM":"UTC","LAUNCH_DATE":"2022-05-13","GP_ID":"211836604","CENTER_NAME":"EARTH","DECAY_DATE":null,"RA_OF_ASC_NODE":"118.7424","TLE_LINE1":"1 52538U 22051F   22248.91667824 -.00021888  00000-0 -13613-2 0  9999","EPHEMERIS_TYPE":"0","REF_FRAME":"TEME","OBJECT_ID":"2022-051F","SEMIMAJOR_AXIS":"6917.879","OBJECT_NAME":"STARLINK-3933","NORAD_CAT_ID":"52538","PERIOD":"95.438","MEAN_ANOMALY":"150.5885","REV_AT_EPOCH":"130"},{"NORAD_CAT_ID":"52539","MEAN_ANOMALY":"129.9569","PERIOD":"95.438","REV_AT_EPOCH":"130","GP_ID":"211836339","CENTER_NAME":"EARTH","LAUNCH_DATE":"2022-05-13","TIME_SYSTEM":"UTC","RA_OF_ASC_NODE":"118.7486","TLE_LINE1":"1 52539U 22051G   22248.91667824 -.00045830  00000-0 -28802-2 0  9999","DECAY_DATE":null,"SEMIMAJOR_AXIS":"6917.896","EPHEMERIS_TYPE":"0","OBJECT_ID":"2022-051G","REF_FRAME":"TEME","OBJECT_NAME":"STARLINK-3757","SITE":"AFWTR","ELEMENT_SET_NO":"999","EPOCH":"2022-09-05T22:00:00.999936","PERIAPSIS":"538.304","FILE":"3559723","ARG_OF_PERICENTER":"64.0922","INCLINATION":"53.2162","OBJECT_TYPE":"PAYLOAD","TLE_LINE2":"2 52539  53.2162 118.7486 0002105  64.0922 129.9569 15.08835052  1303","BSTAR":"-0.00288020000000","APOAPSIS":"541.217","ECCENTRICITY":"0.00021050","MEAN_MOTION":"15.08835052","MEAN_MOTION_DDOT":"0.0000000000000","MEAN_MOTION_DOT":"-0.00045830","COUNTRY_CODE":"US","MEAN_ELEMENT_THEORY":"SGP4","CLASSIFICATION_TYPE":"U","RCS_SIZE":"LARGE"},{"ARG_OF_PERICENTER":"61.0118","SITE":"AFWTR","FILE":"3559723","PERIAPSIS":"538.384","ELEMENT_SET_NO":"999","EPOCH":"2022-09-05T22:00:00.999936","MEAN_MOTION_DOT":"-0.00032697","MEAN_MOTION_DDOT":"0.0000000000000","APOAPSIS":"541.177","ECCENTRICITY":"0.00020190","MEAN_MOTION":"15.08828494","RCS_SIZE":"LARGE","CLASSIFICATION_TYPE":"U","MEAN_ELEMENT_THEORY":"SGP4","COUNTRY_CODE":"US","OBJECT_TYPE":"PAYLOAD","INCLINATION":"53.2173","TLE_LINE2":"2 52540  53.2173 118.7407 0002019  61.0118 213.0479 15.08828494  1305","BSTAR":"-0.00204620000000","REV_AT_EPOCH":"130","NORAD_CAT_ID":"52540","PERIOD":"95.438","MEAN_ANOMALY":"213.0479","OBJECT_ID":"2022-051H","REF_FRAME":"TEME","EPHEMERIS_TYPE":"0","SEMIMAJOR_AXIS":"6917.916","OBJECT_NAME":"STARLINK-3940","LAUNCH_DATE":"2022-05-13","TIME_SYSTEM":"UTC","CENTER_NAME":"EARTH","GP_ID":"211837223","DECAY_DATE":null,"TLE_LINE1":"1 52540U 22051H   22248.91667824 -.00032697  00000-0 -20462-2 0  9992","RA_OF_ASC_NODE":"118.7407"},{"DECAY_DATE":null,"TLE_LINE1":"1 52541U 22051J   22248.91667824 -.00058989  00000-0 -37183-2 0  9993","RA_OF_ASC_NODE":"123.7459","TIME_SYSTEM":"UTC","LAUNCH_DATE":"2022-05-13","CENTER_NAME":"EARTH","GP_ID":"211836898","OBJECT_NAME":"STARLINK-3845","REF_FRAME":"TEME","OBJECT_ID":"2022-051J","EPHEMERIS_TYPE":"0","SEMIMAJOR_AXIS":"6917.870","PERIOD":"95.437","MEAN_ANOMALY":"22.0593","NORAD_CAT_ID":"52541","REV_AT_EPOCH":"130","BSTAR":"-0.00371830000000","TLE_LINE2":"2 52541  53.2134 123.7459 0002193  64.4871  22.0593 15.08843519  1302","OBJECT_TYPE":"PAYLOAD","INCLINATION":"53.2134","CLASSIFICATION_TYPE":"U","RCS_SIZE":"LARGE","MEAN_ELEMENT_THEORY":"SGP4","COUNTRY_CODE":"US","MEAN_MOTION_DOT":"-0.00058989","MEAN_MOTION_DDOT":"0.0000000000000","APOAPSIS":"541.252","ECCENTRICITY":"0.00021930","MEAN_MOTION":"15.08843519","PERIAPSIS":"538.218","FILE":"3559723","EPOCH":"2022-09-05T22:00:00.999936","ELEMENT_SET_NO":"999","SITE":"AFWTR","ARG_OF_PERICENTER":"64.4871"},{"REV_AT_EPOCH":"130","PERIOD":"95.439","MEAN_ANOMALY":"237.3007","NORAD_CAT_ID":"52542","OBJECT_NAME":"STARLINK-3937","OBJECT_ID":"2022-051K","REF_FRAME":"TEME","EPHEMERIS_TYPE":"0","SEMIMAJOR_AXIS":"6917.934","DECAY_DATE":null,"TLE_LINE1":"1 52542U 22051K   22248.91667824 -.00013442  00000-0 -82843-3 0  9993","RA_OF_ASC_NODE":"118.7253","TIME_SYSTEM":"UTC","LAUNCH_DATE":"2022-05-13","CENTER_NAME":"EARTH","GP_ID":"211836192","ARG_OF_PERICENTER":"56.7596","PERIAPSIS":"538.530","FILE":"3559723","ELEMENT_SET_NO":"999","EPOCH":"2022-09-05T22:00:00.999936","SITE":"AFWTR","CLASSIFICATION_TYPE":"U","RCS_SIZE":"LARGE","MEAN_ELEMENT_THEORY":"SGP4","COUNTRY_CODE":"US","MEAN_MOTION_DOT":"-0.00013442","MEAN_MOTION_DDOT":"0.0000000000000","APOAPSIS":"541.068","MEAN_MOTION":"15.08822402","ECCENTRICITY":"0.00018340","BSTAR":"-0.00082843000000","TLE_LINE2":"2 52542  53.2182 118.7253 0001834  56.7596 237.3007 15.08822402  1300","OBJECT_TYPE":"PAYLOAD","INCLINATION":"53.2182"},{"REV_AT_EPOCH":"130","NORAD_CAT_ID":"52543","PERIOD":"95.438","MEAN_ANOMALY":"176.3243","EPHEMERIS_TYPE":"0","OBJECT_ID":"2022-051L","REF_FRAME":"TEME","SEMIMAJOR_AXIS":"6917.888","OBJECT_NAME":"STARLINK-3926","TIME_SYSTEM":"UTC","LAUNCH_DATE":"2022-05-13","GP_ID":"211836753","CENTER_NAME":"EARTH","DECAY_DATE":null,"RA_OF_ASC_NODE":"118.7476","TLE_LINE1":"1 52543U 22051L   22248.91667824 -.00039752  00000-0 -24935-2 0  9993","ARG_OF_PERICENTER":"57.7321","SITE":"AFWTR","FILE":"3559723","PERIAPSIS":"538.416","ELEMENT_SET_NO":"999","EPOCH":"2022-09-05T22:00:00.999936","MEAN_MOTION_DDOT":"0.0000000000000","MEAN_MOTION_DOT":"-0.00039752","APOAPSIS":"541.090","MEAN_MOTION":"15.08837568","ECCENTRICITY":"0.00019330","MEAN_ELEMENT_THEORY":"SGP4","RCS_SIZE":"LARGE","CLASSIFICATION_TYPE":"U","COUNTRY_CODE":"US","INCLINATION":"53.2165","OBJECT_TYPE":"PAYLOAD","BSTAR":"-0.00249350000000","TLE_LINE2":"2 52543  53.2165 118.7476 0001933  57.7321 176.3243 15.08837568  1309"}];
